ADRAS-J                 
1 58992U 24034A   24258.75697470  .00012161  00000+0  10886-2 0  9997
2 58992  98.2213 235.9566 0045227 113.1478 247.4516 14.95205259 31242
